0 SL-12 R/B(2)
1 18360U 87079F   13283.26119731  .00000068  00000-0  00000+0 0  2363
2 18360 064.9337 113.1750 0006918 273.2006 321.6825 02.13418229203110
0 SL-12 R/B(2)
1 18360U 87079F   13287.64110303  .00000090  00000-0  00000+0 0  2371
2 18360 064.9339 113.0265 0006943 273.3836 086.5989 02.13418278203204
0 SL-12 R/B(2)
1 18360U 87079F   13294.66953662  .00000036  00000-0  00000+0 0  2385
2 18360 064.9355 112.7887 0006928 273.1356 086.8183 02.13418285203359
